{
  "type": "FeatureCollection",
  "features": [
    {
      "type": "Feature",
      "properties": {
        "norad_id": 38474,
        "name": "IRIDIUM 33 DEB",
        "group": "iridium-33-debris",
        "lat": -61.52993665029882,
        "lon": 4.612106117355935,
        "alt_km": 749.325600090473,
        "timestamp": "2025-12-09T16:56:36.959952+00:00",
        "meta_object_name": "IRIDIUM 33 DEB",
        "meta_object_id": "1997-051AAB",
        "meta_epoch": "2025-12-08T08:07:09.463872",
        "meta_mean_motion": 14.50663948,
        "meta_eccentricity": 0.00281226,
        "meta_inclination": 86.3436,
        "meta_ra_of_asc_node": 11.9798,
        "meta_arg_of_pericenter": 101.673,
        "meta_mean_anomaly": 258.7634,
        "meta_ephemeris_type": 0,
        "meta_classification_type": "U",
        "meta_norad_cat_id": 38474,
        "meta_element_set_no": 999,
        "meta_rev_at_epoch": 65254,
        "meta_bstar": 0.0008115799,
        "meta_mean_motion_dot": 3.222e-05,
        "meta_mean_motion_ddot": 0,
        "tle_line1": "1 38474U 97051AAB 25342.33830398  .00003222  00000+0  81158-3 0  9995",
        "tle_line2": "2 38474  86.3436  11.9798 0028122 101.6730 258.7634 14.50663948652549"
      },
      "geometry": {
        "type": "Point",
        "coordinates": [
          4.612106117355935,
          -61.52993665029882
        ]
      }
    },
    {
      "type": "Feature",
      "properties": {
        "norad_id": 39777,
        "name": "IRIDIUM 33 DEB",
        "group": "iridium-33-debris",
        "lat": -75.95884867684516,
        "lon": 160.11035817947155,
        "alt_km": 709.8005521843434,
        "timestamp": "2025-12-09T16:56:36.959962+00:00",
        "meta_object_name": "IRIDIUM 33 DEB",
        "meta_object_id": "1997-051AAJ",
        "meta_epoch": "2025-12-09T12:20:58.658784",
        "meta_mean_motion": 14.56304197,
        "meta_eccentricity": 0.0059711,
        "meta_inclination": 85.9626,
        "meta_ra_of_asc_node": 176.6076,
        "meta_arg_of_pericenter": 197.4862,
        "meta_mean_anomaly": 162.4291,
        "meta_ephemeris_type": 0,
        "meta_classification_type": "U",
        "meta_norad_cat_id": 39777,
        "meta_element_set_no": 999,
        "meta_rev_at_epoch": 60138,
        "meta_bstar": 0.0037431,
        "meta_mean_motion_dot": 0.00017025,
        "meta_mean_motion_ddot": 0,
        "tle_line1": "1 39777U 97051AAJ 25343.51456781  .00017025  00000+0  37431-2 0  9993",
        "tle_line2": "2 39777  85.9626 176.6076 0059711 197.4862 162.4291 14.56304197601387"
      },
      "geometry": {
        "type": "Point",
        "coordinates": [
          160.11035817947155,
          -75.95884867684516
        ]
      }
    },
    {
      "type": "Feature",
      "properties": {
        "norad_id": 39778,
        "name": "IRIDIUM 33 DEB",
        "group": "iridium-33-debris",
        "lat": 38.72959989526622,
        "lon": -138.36968639493736,
        "alt_km": 709.1286680792464,
        "timestamp": "2025-12-09T16:56:36.959973+00:00",
        "meta_object_name": "IRIDIUM 33 DEB",
        "meta_object_id": "1997-051AAK",
        "meta_epoch": "2025-12-08T10:34:19.219872",
        "meta_mean_motion": 14.54215447,
        "meta_eccentricity": 0.00084331,
        "meta_inclination": 86.3776,
        "meta_ra_of_asc_node": 45.0917,
        "meta_arg_of_pericenter": 54.5807,
        "meta_mean_anomaly": 305.6186,
        "meta_ephemeris_type": 0,
        "meta_classification_type": "U",
        "meta_norad_cat_id": 39778,
        "meta_element_set_no": 999,
        "meta_rev_at_epoch": 60630,
        "meta_bstar": 0.0013246298,
        "meta_mean_motion_dot": 5.631e-05,
        "meta_mean_motion_ddot": 0,
        "tle_line1": "1 39778U 97051AAK 25342.44050023  .00005631  00000+0  13246-2 0  9992",
        "tle_line2": "2 39778  86.3776  45.0917 0008433  54.5807 305.6186 14.54215447606307"
      },
      "geometry": {
        "type": "Point",
        "coordinates": [
          -138.36968639493736,
          38.72959989526622
        ]
      }
    },
    {
      "type": "Feature",
      "properties": {
        "norad_id": 39781,
        "name": "IRIDIUM 33 DEB",
        "group": "iridium-33-debris",
        "lat": -82.44761210293083,
        "lon": 107.84404479895424,
        "alt_km": 709.550015722074,
        "timestamp": "2025-12-09T16:56:36.959983+00:00",
        "meta_object_name": "IRIDIUM 33 DEB",
        "meta_object_id": "1997-051AAN",
        "meta_epoch": "2025-12-08T00:53:08.261952",
        "meta_mean_motion": 14.20419658,
        "meta_eccentricity": 0.01788839,
        "meta_inclination": 86.3691,
        "meta_ra_of_asc_node": 259.9169,
        "meta_arg_of_pericenter": 288.2181,
        "meta_mean_anomaly": 86.0915,
        "meta_ephemeris_type": 0,
        "meta_classification_type": "U",
        "meta_norad_cat_id": 39781,
        "meta_element_set_no": 999,
        "meta_rev_at_epoch": 8040,
        "meta_bstar": 0.0072666805,
        "meta_mean_motion_dot": 0.00018344,
        "meta_mean_motion_ddot": 0,
        "tle_line1": "1 39781U 97051AAN 25342.03690118  .00018344  00000+0  72667-2 0  9993",
        "tle_line2": "2 39781  86.3691 259.9169 0178883 288.2181  86.0915 14.20419658 80400"
      },
      "geometry": {
        "type": "Point",
        "coordinates": [
          107.84404479895424,
          -82.44761210293083
        ]
      }
    },
    {
      "type": "Feature",
      "properties": {
        "norad_id": 39783,
        "name": "IRIDIUM 33 DEB",
        "group": "iridium-33-debris",
        "lat": 67.04187467781452,
        "lon": -93.94418236953933,
        "alt_km": 461.8379650230345,
        "timestamp": "2025-12-09T16:56:36.959994+00:00",
        "meta_object_name": "IRIDIUM 33 DEB",
        "meta_object_id": "1997-051AAQ",
        "meta_epoch": "2025-11-16T15:05:40.850592",
        "meta_mean_motion": 15.19327111,
        "meta_eccentricity": 0.00057535,
        "meta_inclination": 86.1306,
        "meta_ra_of_asc_node": 268.8004,
        "meta_arg_of_pericenter": 179.9151,
        "meta_mean_anomaly": 1.8316,
        "meta_ephemeris_type": 0,
        "meta_classification_type": "U",
        "meta_norad_cat_id": 39783,
        "meta_element_set_no": 999,
        "meta_rev_at_epoch": 60401,
        "meta_bstar": 0.010398125,
        "meta_mean_motion_dot": 0.00226179,
        "meta_mean_motion_ddot": 0,
        "tle_line1": "1 39783U 97051AAQ 25320.62894503  .00226179  00000+0  10398-1 0  9999",
        "tle_line2": "2 39783  86.1306 268.8004 0005753 179.9151   1.8316 15.19327111604018"
      },
      "geometry": {
        "type": "Point",
        "coordinates": [
          -93.94418236953933,
          67.04187467781452
        ]
      }
    },
    {
      "type": "Feature",
      "properties": {
        "norad_id": 40996,
        "name": "IRIDIUM 33 DEB",
        "group": "iridium-33-debris",
        "lat": -30.66785311932873,
        "lon": 0.6571867425563866,
        "alt_km": 587.3540085050163,
        "timestamp": "2025-12-09T16:56:36.960005+00:00",
        "meta_object_name": "IRIDIUM 33 DEB",
        "meta_object_id": "1997-051ABJ",
        "meta_epoch": "2025-12-09T01:09:30.547008",
        "meta_mean_motion": 14.95892806,
        "meta_eccentricity": 0.00121636,
        "meta_inclination": 86.3511,
        "meta_ra_of_asc_node": 3.133,
        "meta_arg_of_pericenter": 73.8642,
        "meta_mean_anomaly": 316.0312,
        "meta_ephemeris_type": 0,
        "meta_classification_type": "U",
        "meta_norad_cat_id": 40996,
        "meta_element_set_no": 999,
        "meta_rev_at_epoch": 62433,
        "meta_bstar": 0.0032118853,
        "meta_mean_motion_dot": 0.00036132,
        "meta_mean_motion_ddot": 0,
        "tle_line1": "1 40996U 97051ABJ 25343.04827022  .00036132  00000+0  32119-2 0  9994",
        "tle_line2": "2 40996  86.3511   3.1330 0012163  73.8642 316.0312 14.95892806624333"
      },
      "geometry": {
        "type": "Point",
        "coordinates": [
          0.6571867425563866,
          -30.66785311932873
        ]
      }
    },
    {
      "type": "Feature",
      "properties": {
        "norad_id": 40998,
        "name": "IRIDIUM 33 DEB",
        "group": "iridium-33-debris",
        "lat": -79.80625329369384,
        "lon": -104.45515364480804,
        "alt_km": 755.9650057686149,
        "timestamp": "2025-12-09T16:56:36.960016+00:00",
        "meta_object_name": "IRIDIUM 33 DEB",
        "meta_object_id": "1997-051ABL",
        "meta_epoch": "2025-12-03T12:06:12.154176",
        "meta_mean_motion": 14.45043538,
        "meta_eccentricity": 0.00095708,
        "meta_inclination": 86.3836,
        "meta_ra_of_asc_node": 57.6004,
        "meta_arg_of_pericenter": 108.6038,
        "meta_mean_anomaly": 309.9308,
        "meta_ephemeris_type": 0,
        "meta_classification_type": "U",
        "meta_norad_cat_id": 40998,
        "meta_element_set_no": 999,
        "meta_rev_at_epoch": 6548,
        "meta_bstar": 0.00081638604,
        "meta_mean_motion_dot": 2.87e-05,
        "meta_mean_motion_ddot": 0,
        "tle_line1": "1 40998U 97051ABL 25337.50430734  .00002870  00000+0  81639-3 0  9994",
        "tle_line2": "2 40998  86.3836  57.6004 0009570 108.6038 309.9308 14.45043538 65487"
      },
      "geometry": {
        "type": "Point",
        "coordinates": [
          -104.45515364480804,
          -79.80625329369384
        ]
      }
    }
  ]
}